[{"OBJECT_NAME":"HEAD-3A","OBJECT_ID":"2023-121A","EPOCH":"2026-03-09T23:13:19.514208","MEAN_MOTION":14.60504198,"ECCENTRICITY":0.00053162,"INCLINATION":45.0013,"RA_OF_ASC_NODE":79.5453,"ARG_OF_PERICENTER":132.961,"MEAN_ANOMALY":227.1693,"EPHEMERIS_TYPE":0,"CLASSIFICATION_TYPE":"U","NORAD_CAT_ID":57626,"ELEMENT_SET_NO":999,"REV_AT_EPOCH":13707,"BSTAR":0.00022333117,"MEAN_MOTION_DOT":9.35e-6,"MEAN_MOTION_DDOT":0},{"OBJECT_NAME":"CZ-6A DEB","OBJECT_ID":"2024-140TM","EPOCH":"2026-03-09T14:28:21.589824","MEAN_MOTION":14.62059222,"ECCENTRICITY":0.0136859,"INCLINATION":89.0333,"RA_OF_ASC_NODE":284.5057,"ARG_OF_PERICENTER":252.3108,"MEAN_ANOMALY":106.3126,"EPHEMERIS_TYPE":0,"CLASSIFICATION_TYPE":"U","NORAD_CAT_ID":61300,"ELEMENT_SET_NO":999,"REV_AT_EPOCH":8138,"BSTAR":0.00088511,"MEAN_MOTION_DOT":5.098e-5,"MEAN_MOTION_DDOT":0}]
